PLEIADES 1A             
1 38012U 11076F   26199.82963538  .00000129  00000+0  37681-4 0  9990
2 38012  98.1965 274.5056 0001625  77.4661  35.6940 14.58548006776602
PLEIADES 1B             
1 39019U 12068A   26199.84209659  .00000012  00000+0  12509-4 0  9992
2 39019  98.1936 274.4559 0001525  77.6569 282.4801 14.58535067725462
